[{"OBJECT_NAME":"STARLINK-33655","OBJECT_ID":"2025-065AB","EPOCH":"2026-03-09T03:43:35.516352","MEAN_MOTION":15.27616532,"ECCENTRICITY":0.0001034,"INCLINATION":43.0028,"RA_OF_ASC_NODE":110.4269,"ARG_OF_PERICENTER":260.1414,"MEAN_ANOMALY":99.9321,"EPHEMERIS_TYPE":0,"CLASSIFICATION_TYPE":"U","NORAD_CAT_ID":63424,"ELEMENT_SET_NO":999,"REV_AT_EPOCH":5275,"BSTAR":0.0015173935,"MEAN_MOTION_DOT":0.00041777,"MEAN_MOTION_DDOT":0},{"OBJECT_NAME":"H-2A R\/B","OBJECT_ID":"2006-002B","EPOCH":"2026-03-09T22:32:18.942432","MEAN_MOTION":15.16426804,"ECCENTRICITY":0.00518947,"INCLINATION":98.2413,"RA_OF_ASC_NODE":215.9838,"ARG_OF_PERICENTER":240.1322,"MEAN_ANOMALY":119.4746,"EPHEMERIS_TYPE":0,"CLASSIFICATION_TYPE":"U","NORAD_CAT_ID":28932,"ELEMENT_SET_NO":999,"REV_AT_EPOCH":9447,"BSTAR":0.00057792596,"MEAN_MOTION_DOT":0.00011556,"MEAN_MOTION_DDOT":0}]
